[{"OBJECT_NAME":"JINJUSAT-1B","OBJECT_ID":"2025-052A","EPOCH":"2026-03-09T15:55:38.242848","MEAN_MOTION":15.30194857,"ECCENTRICITY":0.00055504,"INCLINATION":97.4113,"RA_OF_ASC_NODE":325.4613,"ARG_OF_PERICENTER":82.193,"MEAN_ANOMALY":277.9941,"EPHEMERIS_TYPE":0,"CLASSIFICATION_TYPE":"U","NORAD_CAT_ID":63210,"ELEMENT_SET_NO":999,"REV_AT_EPOCH":5486,"BSTAR":0.00068430401,"MEAN_MOTION_DOT":0.00019955,"MEAN_MOTION_DDOT":0},{"OBJECT_NAME":"STARLINK-33762","OBJECT_ID":"2025-069K","EPOCH":"2026-03-09T10:15:46.511424","MEAN_MOTION":15.30174607,"ECCENTRICITY":0.00012412,"INCLINATION":53.1573,"RA_OF_ASC_NODE":143.7692,"ARG_OF_PERICENTER":65.4547,"MEAN_ANOMALY":294.6583,"EPHEMERIS_TYPE":0,"CLASSIFICATION_TYPE":"U","NORAD_CAT_ID":63442,"ELEMENT_SET_NO":999,"REV_AT_EPOCH":5336,"BSTAR":0.00039407698,"MEAN_MOTION_DOT":0.00011321,"MEAN_MOTION_DDOT":0}]
